OBJECT_NAME,OBJECT_ID,EPOCH,MEAN_MOTION,ECCENTRICITY,INCLINATION,RA_OF_ASC_NODE,ARG_OF_PERICENTER,MEAN_ANOMALY,EPHEMERIS_TYPE,CLASSIFICATION_TYPE,NORAD_CAT_ID,ELEMENT_SET_NO,REV_AT_EPOCH,BSTAR,MEAN_MOTION_DOT,MEAN_MOTION_DDOT
CHUANGXIN 1-02 (CX-1-02),2008-056B,2026-06-15T23:14:15.636192,14.30153346,.00149507,98.6133,193.2470,139.9248,220.3040,0,U,33434,999,91844,.95515152E-4,.204E-5,0
STARS (KUKAI),2009-002G,2026-06-15T19:32:23.860320,14.95746211,.00087349,98.1558,114.0669,162.4092,197.7432,0,U,33498,999,93827,.30408824E-3,.3328E-4,0
KKS-1 (KISEKI),2009-002H,2026-06-15T21:46:28.459776,14.83121349,.00066041,98.1190,89.3292,300.8466,59.2097,0,U,33499,999,93600,.15247316E-3,.1187E-4,0
UK-DMC 2,2009-041C,2026-06-15T22:30:25.773984,14.76025354,.00011855,97.8833,301.9343,77.2299,282.9044,0,U,35683,999,90638,.12419503E-3,.806E-5,0
OCEANSAT-2,2009-051A,2026-06-15T21:54:26.073792,13.99664614,.00151091,98.2324,153.8913,239.8308,120.1362,0,U,35931,999,87915,-.50896139E-4,-.112E-5,0
SWISSCUBE,2009-051B,2026-06-15T17:33:55.670112,14.62479266,.0005872,98.4037,74.5948,208.1158,151.9727,0,U,35932,999,88894,.17487512E-3,.837E-5,0
BEESAT-1,2009-051C,2026-06-15T16:07:51.103200,14.61718328,.00041439,98.3966,74.1727,222.7954,137.2924,0,U,35933,999,88896,.14948046E-3,.696E-5,0
ITUPSAT1,2009-051E,2026-06-15T17:31:28.915392,14.60438795,.00062121,98.4050,73.4251,239.3695,120.6892,0,U,35935,999,88852,.14235447E-3,.641E-5,0
DMSP 5D-3 F18 (USA 210),2009-057A,2026-06-15T22:32:01.183776,14.14896073,.00098808,98.9037,147.7107,253.5128,106.4959,0,U,35951,999,85941,.12873543E-3,.204E-5,0
PROBA-2,2009-059B,2026-06-15T22:24:34.929504,14.54861986,.00119851,98.2449,350.3039,286.4316,73.5564,0,U,36037,999,88134,.45470633E-4,.15E-5,0
YAOGAN-7,2009-069A,2026-06-15T22:30:34.331040,14.78008724,.00256347,98.0074,52.8126,45.5692,314.7610,0,U,36110,999,88944,.64151135E-4,.412E-5,0
XIWANG-1 (HOPE-1),2009-072B,2026-06-15T21:01:17.592384,13.16437301,.00068717,100.4024,120.7289,234.8377,125.2093,0,U,36122,999,79283,-.11213069E-2,-.473E-5,0
COSMOS 2463,2010-017A,2026-06-15T17:48:11.595168,13.71665551,.00372779,82.9606,250.7676,132.7488,340.7024,0,U,36519,999,80773,.37404166E-4,.49E-6,0
CARTOSAT-2B,2010-035A,2026-06-15T23:40:15.331584,14.78661319,.00110867,97.9956,217.5436,187.6162,172.4882,0,U,36795,999,85967,.12064979E-3,.832E-5,0
TISAT 1,2010-035E,2026-06-15T19:27:09.022176,15.31663542,.00012018,98.0713,113.2374,169.6486,190.4779,0,U,36799,999,86749,.54469447E-3,.16585E-3,0
YAOGAN-10,2010-038A,2026-06-16T00:04:25.926240,14.85343907,.00016699,97.8973,190.4163,86.3062,330.6619,0,U,36834,999,85703,.87506778E-4,.699E-5,0
SHIJIAN-6 04B (SJ-6 04B),2010-051B,2026-06-15T22:55:24.718944,14.99311235,.00081394,97.8678,172.3522,318.6313,41.4292,0,U,37180,999,85549,.86790392E-4,.999E-5,0
FENGYUN 3B,2010-059A,2026-06-15T21:52:24.618720,14.14840935,.00218379,98.9623,212.9203,187.6466,345.4289,0,U,37214,999,80724,-.47387357E-4,-.137E-5,0
COSMO-SKYMED 4,2010-060A,2026-06-15T23:00:16.170336,14.82154992,.0001438,97.8879,350.5763,81.3276,278.8100,0,U,37216,999,84438,.10658364E-3,.796E-5,0
O/OREOS (USA 219),2010-062C,2026-06-15T22:10:10.153632,14.93740213,.00125217,71.9714,83.2015,65.8331,294.4147,0,U,37224,999,11645,.19463844E-3,.2002E-4,0
RESOURCESAT-2,2011-015A,2026-06-15T21:25:12.337824,14.21606123,.00101784,98.7644,234.3433,259.6464,100.3566,0,U,37387,999,78599,.4521117E-4,.55E-6,0
YOUTHSAT,2011-015B,2026-06-15T23:09:22.288320,14.25629848,.00143012,98.3682,141.0740,350.6970,78.7544,0,U,37388,999,78746,.75999619E-4,.139E-5,0
APRIZESAT 6,2011-044F,2026-06-15T23:53:28.156128,14.76914317,.00444963,98.2365,77.4707,89.7335,333.6407,0,U,37793,999,79697,.98906232E-4,.651E-5,0
JUGNU,2011-058B,2026-06-15T03:05:53.191104,14.13776231,.00186275,19.9618,320.9329,53.5996,113.0994,0,U,37839,999,75873,.69103196E-4,.399E-5,0
SRMSAT,2011-058D,2026-06-15T02:14:35.216160,14.11575160,.00118389,19.9720,72.1399,180.5594,207.7984,0,U,37841,999,75752,.49298812E-4,.356E-5,0
